{"type": "FeatureCollection", "features": [{"type": "Feature", "geometry": {"type": "Polygon", "coordinates": [[[-97.5, 25.8], [-93.5, 29.3], [-89.0, 30.2], [-84.5, 29.8], [-82.8, 27.5], [-81.2, 25.0], [-80.0, 25.4], [-80.3, 27.9], [-81.4, 30.8], [-79.0, 33.3], [-76.0, 35.2], [-75.4, 35.9], [-77.2, 34.2], [-80.6, 32.1], [-81.6, 31.0], [-82.3, 28.8], [-82.6, 28.2], [-84.4, 30.3], [-89.1, 30.9], [-93.8, 30.1], [-97.4, 28.0], [-97.5, 25.8]]]}, "properties": {"layer": "wind", "tier": "T1", "label": "Gulf Coast \u2014 Tier 1 wind"}}, {"type": "Feature", "geometry": {"type": "Polygon", "coordinates": [[[-76.168, 36.5], [-76.1388, 36.8429], [-76.3601, 37.1558], [-76.6946, 37.4162], [-77.0752, 37.6369], [-77.5262, 37.7868], [-78.0299, 37.8106], [-78.5, 37.732], [-78.9172, 37.6631], [-79.3843, 37.6685], [-79.9614, 37.6662], [-80.5066, 37.5183], [-80.7882, 37.2012], [-80.7495, 36.8267], [-80.568, 36.5], [-80.4285, 36.2199], [-80.3244, 35.9409], [-80.1347, 35.6704], [-79.8186, 35.4478], [-79.4353, 35.2641], [-79.009, 35.0808], [-78.5, 34.932], [-77.9381, 34.9333], [-77.4752, 35.1458], [-77.2181, 35.477], [-77.0665, 35.7725], [-76.8239, 35.9864], [-76.4598, 36.2037], [-76.168, 36.5]]]}, "properties": {"layer": "wind", "tier": "T2", "label": "South Atlantic \u2014 Tier 2 wind"}}, {"type": "Feature", "geometry": {"type": "Polygon", "coordinates": [[[-91.3, 29.9], [-90.2, 30.5], [-90.6, 32.4], [-90.9, 34.8], [-89.8, 36.9], [-90.4, 38.6], [-91.2, 38.4], [-91.6, 36.6], [-91.9, 34.4], [-91.6, 32.2], [-91.9, 30.6], [-91.3, 29.9]]]}, "properties": {"layer": "flood", "tier": "A", "label": "Mississippi floodplain"}}, {"type": "Feature", "geometry": {"type": "Polygon", "coordinates": [[[-94.664, 29.8], [-94.656, 29.9102], [-94.7164, 30.0108], [-94.8076, 30.0945], [-94.9114, 30.1654], [-95.0344, 30.2136], [-95.1718, 30.2213], [-95.3, 30.196], [-95.4138, 30.1738], [-95.5412, 30.1756], [-95.6986, 30.1748], [-95.8473, 30.1273], [-95.924, 30.0254], [-95.9135, 29.905], [-95.864, 29.8], [-95.826, 29.71], [-95.7976, 29.6203], [-95.7458, 29.5334], [-95.6596, 29.4618], [-95.5551, 29.4028], [-95.4388, 29.3438], [-95.3, 29.296], [-95.1467, 29.2964], [-95.0205, 29.3647], [-94.9504, 29.4712], [-94.9091, 29.5662], [-94.8429, 29.6349], [-94.7436, 29.7048], [-94.664, 29.8]]]}, "properties": {"layer": "flood", "tier": "A", "label": "Houston bayous"}}, {"type": "Feature", "geometry": {"type": "Polygon", "coordinates": [[[-124.2, 40.4], [-121.4, 38.9], [-119.6, 36.2], [-117.0, 34.0], [-115.4, 32.6], [-116.6, 32.4], [-118.4, 33.7], [-120.8, 35.4], [-122.8, 37.4], [-124.4, 39.8], [-124.2, 40.4]]]}, "properties": {"layer": "eq", "tier": "Zone 4", "label": "San Andreas corridor"}}, {"type": "Feature", "geometry": {"type": "Polygon", "coordinates": [[[-88.116, 36.4], [-88.0974, 36.645], [-88.2383, 36.8684], [-88.4511, 37.0544], [-88.6933, 37.2121], [-88.9803, 37.3192], [-89.3009, 37.3362], [-89.6, 37.28], [-89.8655, 37.2308], [-90.1627, 37.2346], [-90.53, 37.233], [-90.8769, 37.1274], [-91.0561, 36.9009], [-91.0315, 36.6334], [-90.916, 36.4], [-90.8272, 36.1999], [-90.761, 36.0006], [-90.6403, 35.8074], [-90.4391, 35.6484], [-90.1952, 35.5172], [-89.9239, 35.3863], [-89.6, 35.28], [-89.2424, 35.2809], [-88.9478, 35.4327], [-88.7842, 35.6693], [-88.6878, 35.8804], [-88.5334, 36.0331], [-88.3017, 36.1883], [-88.116, 36.4]]]}, "properties": {"layer": "eq", "tier": "Zone 3", "label": "New Madrid seismic zone"}}, {"type": "Feature", "geometry": {"type": "Polygon", "coordinates": [[[-119.234, 38.6], [-119.2194, 38.8205], [-119.3301, 39.0216], [-119.4973, 39.189], [-119.6876, 39.3309], [-119.9131, 39.4273], [-120.165, 39.4425], [-120.4, 39.392], [-120.6086, 39.3477], [-120.8421, 39.3512], [-121.1307, 39.3497], [-121.4033, 39.2546], [-121.5441, 39.0508], [-121.5247, 38.81], [-121.434, 38.6], [-121.3643, 38.4199], [-121.3122, 38.2406], [-121.2173, 38.0667], [-121.0593, 37.9236], [-120.8676, 37.8055], [-120.6545, 37.6877], [-120.4, 37.592], [-120.119, 37.5928], [-119.8876, 37.7294], [-119.759, 37.9424], [-119.6833, 38.1324], [-119.562, 38.2698], [-119.3799, 38.4095], [-119.234, 38.6]]]}, "properties": {"layer": "wildfire", "tier": "Very high", "label": "Sierra foothills WUI"}}, {"type": "Feature", "geometry": {"type": "Polygon", "coordinates": [[[-104.452, 39.6], [-104.4414, 39.7715], [-104.5219, 39.9279], [-104.6435, 40.0581], [-104.7819, 40.1685], [-104.9459, 40.2434], [-105.1291, 40.2553], [-105.3, 40.216], [-105.4517, 40.1815], [-105.6216, 40.1843], [-105.8314, 40.1831], [-106.0297, 40.1092], [-106.1321, 39.9506], [-106.118, 39.7634], [-106.052, 39.6], [-106.0013, 39.4599], [-105.9634, 39.3205], [-105.8944, 39.1852], [-105.7795, 39.0739], [-105.6401, 38.9821], [-105.4851, 38.8904], [-105.3, 38.816], [-105.0957, 38.8166], [-104.9273, 38.9229], [-104.8338, 39.0885], [-104.7787, 39.2363], [-104.6905, 39.3432], [-104.5581, 39.4518], [-104.452, 39.6]]]}, "properties": {"layer": "wildfire", "tier": "High", "label": "Front Range WUI"}}, {"type": "Feature", "geometry": {"type": "Point", "coordinates": [-82.93, 39.99]}, "properties": {"label": "Columbus plant"}}, {"type": "Feature", "geometry": {"type": "Point", "coordinates": [-119.77, 39.5]}, "properties": {"label": "Reno warehouse"}}, {"type": "Feature", "geometry": {"type": "Point", "coordinates": [-95.26, 29.76]}, "properties": {"label": "Houston DC"}}, {"type": "Feature", "geometry": {"type": "Point", "coordinates": [-82.37, 27.93]}, "properties": {"label": "Tampa DC (new)"}}]}